{"type": "FeatureCollection", "features": [{"type": "Feature", "properties": {"stop_id": "26555", "stop_name": "Town Hall Station", "routes": ["Cranbourne", "Pakenham"], "is_terminal": true, "mode": "train"}, "geometry": {"type": "Point", "coordinates": [144.96689012, -37.8160419]}}, {"type": "Feature", "properties": {"stop_id": "26557", "stop_name": "Anzac Station", "routes": ["Cranbourne", "Pakenham"], "is_terminal": false, "mode": "train"}, "geometry": {"type": "Point", "coordinates": [144.972843, -37.8330506]}}, {"type": "Feature", "properties": {"stop_id": "14258", "stop_name": "Malvern Station", "routes": ["Cranbourne", "Pakenham"], "is_terminal": false, "mode": "train"}, "geometry": {"type": "Point", "coordinates": [145.02951007, -37.86624791]}}, {"type": "Feature", "properties": {"stop_id": "14254", "stop_name": "Caulfield Station", "routes": ["Cranbourne", "Pakenham"], "is_terminal": false, "mode": "train"}, "geometry": {"type": "Point", "coordinates": [145.04246399, -37.87717909]}}, {"type": "Feature", "properties": {"stop_id": "13730", "stop_name": "Carnegie Station", "routes": ["Cranbourne", "Pakenham"], "is_terminal": false, "mode": "train"}, "geometry": {"type": "Point", "coordinates": [145.05855399, -37.88617805]}}, {"type": "Feature", "properties": {"stop_id": "13728", "stop_name": "Murrumbeena Station", "routes": ["Cranbourne", "Pakenham"], "is_terminal": false, "mode": "train"}, "geometry": {"type": "Point", "coordinates": [145.06737605, -37.89015328]}}, {"type": "Feature", "properties": {"stop_id": "13726", "stop_name": "Hughesdale Station", "routes": ["Cranbourne", "Pakenham"], "is_terminal": false, "mode": "train"}, "geometry": {"type": "Point", "coordinates": [145.07578248, -37.89396786]}}, {"type": "Feature", "properties": {"stop_id": "13723", "stop_name": "Oakleigh Station", "routes": ["Cranbourne", "Pakenham"], "is_terminal": false, "mode": "train"}, "geometry": {"type": "Point", "coordinates": [145.08836657, -37.900301]}}, {"type": "Feature", "properties": {"stop_id": "13721", "stop_name": "Huntingdale Station", "routes": ["Cranbourne", "Pakenham"], "is_terminal": false, "mode": "train"}, "geometry": {"type": "Point", "coordinates": [145.10245504, -37.91102782]}}, {"type": "Feature", "properties": {"stop_id": "13719", "stop_name": "Clayton Station", "routes": ["Cranbourne", "Pakenham"], "is_terminal": false, "mode": "train"}, "geometry": {"type": "Point", "coordinates": [145.12091918, -37.92476079]}}, {"type": "Feature", "properties": {"stop_id": "13717", "stop_name": "Westall Station", "routes": ["Cranbourne", "Pakenham"], "is_terminal": false, "mode": "train"}, "geometry": {"type": "Point", "coordinates": [145.13813059, -37.93790335]}}, {"type": "Feature", "properties": {"stop_id": "13715", "stop_name": "Springvale Station", "routes": ["Cranbourne", "Pakenham"], "is_terminal": false, "mode": "train"}, "geometry": {"type": "Point", "coordinates": [145.15332389, -37.94916432]}}, {"type": "Feature", "properties": {"stop_id": "13713", "stop_name": "Sandown Park Station", "routes": ["Cranbourne", "Pakenham"], "is_terminal": false, "mode": "train"}, "geometry": {"type": "Point", "coordinates": [145.16335232, -37.95684623]}}, {"type": "Feature", "properties": {"stop_id": "12193", "stop_name": "Noble Park Station", "routes": ["Cranbourne", "Pakenham"], "is_terminal": false, "mode": "train"}, "geometry": {"type": "Point", "coordinates": [145.17594686, -37.96625233]}}, {"type": "Feature", "properties": {"stop_id": "12191", "stop_name": "Yarraman Station", "routes": ["Cranbourne", "Pakenham"], "is_terminal": false, "mode": "train"}, "geometry": {"type": "Point", "coordinates": [145.19148194, -37.97797335]}}, {"type": "Feature", "properties": {"stop_id": "12189", "stop_name": "Dandenong Station", "routes": ["Cranbourne", "Pakenham"], "is_terminal": false, "mode": "train"}, "geometry": {"type": "Point", "coordinates": [145.20981599, -37.98998732]}}, {"type": "Feature", "properties": {"stop_id": "26515", "stop_name": "Lynbrook Station", "routes": ["Cranbourne"], "is_terminal": false, "mode": "train"}, "geometry": {"type": "Point", "coordinates": [145.24958833, -38.05758916]}}, {"type": "Feature", "properties": {"stop_id": "26516", "stop_name": "Merinda Park Station", "routes": ["Cranbourne"], "is_terminal": false, "mode": "train"}, "geometry": {"type": "Point", "coordinates": [145.26348943, -38.0789641]}}, {"type": "Feature", "properties": {"stop_id": "12184", "stop_name": "Cranbourne Station", "routes": ["Cranbourne"], "is_terminal": true, "mode": "train"}, "geometry": {"type": "Point", "coordinates": [145.28074169, -38.0997737]}}, {"type": "Feature", "properties": {"stop_id": "26290", "stop_name": "Sunshine Rail Replacement Bus Stop", "routes": ["Replacement Bus"], "is_terminal": true, "mode": "train"}, "geometry": {"type": "Point", "coordinates": [144.83284051, -37.7890493]}}, {"type": "Feature", "properties": {"stop_id": "26298", "stop_name": "Tottenham Rail Replacement Bus Stop", "routes": ["Replacement Bus"], "is_terminal": false, "mode": "train"}, "geometry": {"type": "Point", "coordinates": [144.86278907, -37.79953644]}}, {"type": "Feature", "properties": {"stop_id": "26308", "stop_name": "West Footscray Rail Replacement Bus Stop", "routes": ["Replacement Bus"], "is_terminal": false, "mode": "train"}, "geometry": {"type": "Point", "coordinates": [144.88412906, -37.80231891]}}, {"type": "Feature", "properties": {"stop_id": "26228", "stop_name": "Middle Footscray Rail Replacement Bus Stop", "routes": ["Replacement Bus"], "is_terminal": false, "mode": "train"}, "geometry": {"type": "Point", "coordinates": [144.89123198, -37.80295999]}}, {"type": "Feature", "properties": {"stop_id": "26171", "stop_name": "Footscray Rail Replacement Bus Stop", "routes": ["Replacement Bus"], "is_terminal": true, "mode": "train"}, "geometry": {"type": "Point", "coordinates": [144.901341, -37.80132924]}}, {"type": "Feature", "properties": {"stop_id": "14271", "stop_name": "Sandringham Station", "routes": ["Sandringham"], "is_terminal": true, "mode": "train"}, "geometry": {"type": "Point", "coordinates": [145.00449433, -37.95028398]}}, {"type": "Feature", "properties": {"stop_id": "14272", "stop_name": "Hampton Station", "routes": ["Sandringham"], "is_terminal": false, "mode": "train"}, "geometry": {"type": "Point", "coordinates": [145.00148844, -37.93815735]}}, {"type": "Feature", "properties": {"stop_id": "14275", "stop_name": "Brighton Beach Station", "routes": ["Sandringham"], "is_terminal": false, "mode": "train"}, "geometry": {"type": "Point", "coordinates": [144.98921409, -37.92635018]}}, {"type": "Feature", "properties": {"stop_id": "14277", "stop_name": "Middle Brighton Station", "routes": ["Sandringham"], "is_terminal": false, "mode": "train"}, "geometry": {"type": "Point", "coordinates": [144.99634652, -37.91506312]}}, {"type": "Feature", "properties": {"stop_id": "14279", "stop_name": "North Brighton Station", "routes": ["Sandringham"], "is_terminal": false, "mode": "train"}, "geometry": {"type": "Point", "coordinates": [145.00259878, -37.90469786]}}, {"type": "Feature", "properties": {"stop_id": "14281", "stop_name": "Gardenvale Station", "routes": ["Sandringham"], "is_terminal": false, "mode": "train"}, "geometry": {"type": "Point", "coordinates": [145.00412516, -37.89661324]}}, {"type": "Feature", "properties": {"stop_id": "14283", "stop_name": "Elsternwick Station", "routes": ["Sandringham"], "is_terminal": false, "mode": "train"}, "geometry": {"type": "Point", "coordinates": [145.00099334, -37.88500706]}}, {"type": "Feature", "properties": {"stop_id": "14285", "stop_name": "Ripponlea Station", "routes": ["Sandringham"], "is_terminal": false, "mode": "train"}, "geometry": {"type": "Point", "coordinates": [144.99512439, -37.87585045]}}, {"type": "Feature", "properties": {"stop_id": "14288", "stop_name": "Balaclava Station", "routes": ["Sandringham"], "is_terminal": false, "mode": "train"}, "geometry": {"type": "Point", "coordinates": [144.99350416, -37.86936143]}}, {"type": "Feature", "properties": {"stop_id": "14289", "stop_name": "Windsor Station", "routes": ["Sandringham"], "is_terminal": false, "mode": "train"}, "geometry": {"type": "Point", "coordinates": [144.9919223, -37.85602412]}}, {"type": "Feature", "properties": {"stop_id": "14291", "stop_name": "Prahran Station", "routes": ["Sandringham"], "is_terminal": false, "mode": "train"}, "geometry": {"type": "Point", "coordinates": [144.98977527, -37.84970629]}}, {"type": "Feature", "properties": {"stop_id": "14293", "stop_name": "South Yarra Station", "routes": ["Sandringham"], "is_terminal": false, "mode": "train"}, "geometry": {"type": "Point", "coordinates": [144.99205655, -37.83850756]}}, {"type": "Feature", "properties": {"stop_id": "12253", "stop_name": "Richmond Station", "routes": ["Sandringham"], "is_terminal": false, "mode": "train"}, "geometry": {"type": "Point", "coordinates": [144.989537, -37.82416288]}}, {"type": "Feature", "properties": {"stop_id": "12204", "stop_name": "Flinders Street Station", "routes": ["Sandringham"], "is_terminal": true, "mode": "train"}, "geometry": {"type": "Point", "coordinates": [144.96673921, -37.81864369]}}, {"type": "Feature", "properties": {"stop_id": "11216", "stop_name": "Flinders Street Station", "routes": ["Craigieburn"], "is_terminal": true, "mode": "train"}, "geometry": {"type": "Point", "coordinates": [144.96660025, -37.81832588]}}, {"type": "Feature", "properties": {"stop_id": "22190", "stop_name": "Southern Cross Station", "routes": ["Craigieburn", "Flemington Racecourse", "Upfield"], "is_terminal": false, "mode": "train"}, "geometry": {"type": "Point", "coordinates": [144.95187417, -37.81844914]}}, {"type": "Feature", "properties": {"stop_id": "14327", "stop_name": "North Melbourne Station", "routes": ["Craigieburn", "Flemington Racecourse"], "is_terminal": false, "mode": "train"}, "geometry": {"type": "Point", "coordinates": [144.94211692, -37.8073658]}}, {"type": "Feature", "properties": {"stop_id": "15553", "stop_name": "Kensington Station", "routes": ["Craigieburn"], "is_terminal": false, "mode": "train"}, "geometry": {"type": "Point", "coordinates": [144.93048988, -37.79379764]}}, {"type": "Feature", "properties": {"stop_id": "15551", "stop_name": "Newmarket Station", "routes": ["Craigieburn"], "is_terminal": false, "mode": "train"}, "geometry": {"type": "Point", "coordinates": [144.92894517, -37.78730005]}}, {"type": "Feature", "properties": {"stop_id": "15549", "stop_name": "Ascot Vale Station", "routes": ["Craigieburn"], "is_terminal": false, "mode": "train"}, "geometry": {"type": "Point", "coordinates": [144.92174231, -37.77526865]}}, {"type": "Feature", "properties": {"stop_id": "15547", "stop_name": "Moonee Ponds Station", "routes": ["Craigieburn"], "is_terminal": false, "mode": "train"}, "geometry": {"type": "Point", "coordinates": [144.91918969, -37.76588741]}}, {"type": "Feature", "properties": {"stop_id": "15545", "stop_name": "Essendon Station", "routes": ["Craigieburn"], "is_terminal": false, "mode": "train"}, "geometry": {"type": "Point", "coordinates": [144.91605681, -37.75617142]}}, {"type": "Feature", "properties": {"stop_id": "15542", "stop_name": "Glenbervie Station", "routes": ["Craigieburn"], "is_terminal": false, "mode": "train"}, "geometry": {"type": "Point", "coordinates": [144.92084819, -37.74719924]}}, {"type": "Feature", "properties": {"stop_id": "15540", "stop_name": "Strathmore Station", "routes": ["Craigieburn"], "is_terminal": false, "mode": "train"}, "geometry": {"type": "Point", "coordinates": [144.92714255, -37.74369642]}}, {"type": "Feature", "properties": {"stop_id": "15538", "stop_name": "Pascoe Vale Station", "routes": ["Craigieburn"], "is_terminal": false, "mode": "train"}, "geometry": {"type": "Point", "coordinates": [144.92813917, -37.73074595]}}, {"type": "Feature", "properties": {"stop_id": "15536", "stop_name": "Oak Park Station", "routes": ["Craigieburn"], "is_terminal": false, "mode": "train"}, "geometry": {"type": "Point", "coordinates": [144.92142831, -37.71793912]}}, {"type": "Feature", "properties": {"stop_id": "15534", "stop_name": "Glenroy Station", "routes": ["Craigieburn"], "is_terminal": false, "mode": "train"}, "geometry": {"type": "Point", "coordinates": [144.91744865, -37.70489183]}}, {"type": "Feature", "properties": {"stop_id": "15532", "stop_name": "Jacana Station", "routes": ["Craigieburn"], "is_terminal": false, "mode": "train"}, "geometry": {"type": "Point", "coordinates": [144.91579258, -37.69517482]}}, {"type": "Feature", "properties": {"stop_id": "15530", "stop_name": "Broadmeadows Station", "routes": ["Craigieburn"], "is_terminal": false, "mode": "train"}, "geometry": {"type": "Point", "coordinates": [144.91979203, -37.682737]}}, {"type": "Feature", "properties": {"stop_id": "26504", "stop_name": "Coolaroo Station", "routes": ["Craigieburn"], "is_terminal": false, "mode": "train"}, "geometry": {"type": "Point", "coordinates": [144.926012, -37.66093868]}}, {"type": "Feature", "properties": {"stop_id": "40219", "stop_name": "Roxburgh Park Station", "routes": ["Craigieburn"], "is_terminal": false, "mode": "train"}, "geometry": {"type": "Point", "coordinates": [144.9353458, -37.63827525]}}, {"type": "Feature", "properties": {"stop_id": "15528", "stop_name": "Craigieburn Station", "routes": ["Craigieburn"], "is_terminal": true, "mode": "train"}, "geometry": {"type": "Point", "coordinates": [144.94313883, -37.6022373]}}, {"type": "Feature", "properties": {"stop_id": "11213", "stop_name": "Flinders Street Station", "routes": ["Belgrave", "City Circle"], "is_terminal": true, "mode": "train"}, "geometry": {"type": "Point", "coordinates": [144.96649165, -37.81814377]}}, {"type": "Feature", "properties": {"stop_id": "22188", "stop_name": "Southern Cross Station", "routes": ["City Circle"], "is_terminal": false, "mode": "train"}, "geometry": {"type": "Point", "coordinates": [144.95210524, -37.81830897]}}, {"type": "Feature", "properties": {"stop_id": "10920", "stop_name": "Flagstaff Station", "routes": ["City Circle"], "is_terminal": false, "mode": "train"}, "geometry": {"type": "Point", "coordinates": [144.95562907, -37.81205297]}}, {"type": "Feature", "properties": {"stop_id": "10922", "stop_name": "Melbourne Central Station", "routes": ["City Circle"], "is_terminal": false, "mode": "train"}, "geometry": {"type": "Point", "coordinates": [144.96251307, -37.80997342]}}, {"type": "Feature", "properties": {"stop_id": "10924", "stop_name": "Parliament Station", "routes": ["City Circle"], "is_terminal": false, "mode": "train"}, "geometry": {"type": "Point", "coordinates": [144.97291092, -37.81105406]}}, {"type": "Feature", "properties": {"stop_id": "11212", "stop_name": "Flinders Street Station", "routes": ["City Circle", "Hurstbridge", "Mernda"], "is_terminal": true, "mode": "train"}, "geometry": {"type": "Point", "coordinates": [144.96626579, -37.81809481]}}, {"type": "Feature", "properties": {"stop_id": "26242", "stop_name": "Newport Rail Replacement Bus Stop", "routes": ["Replacement Bus"], "is_terminal": true, "mode": "train"}, "geometry": {"type": "Point", "coordinates": [144.88254956, -37.84249141]}}, {"type": "Feature", "properties": {"stop_id": "26276", "stop_name": "Seaholme Rail Replacement Bus Stop", "routes": ["Replacement Bus"], "is_terminal": false, "mode": "train"}, "geometry": {"type": "Point", "coordinates": [144.83873537, -37.86764832]}}, {"type": "Feature", "properties": {"stop_id": "26104", "stop_name": "Altona Rail Replacement Bus Stop", "routes": ["Replacement Bus"], "is_terminal": false, "mode": "train"}, "geometry": {"type": "Point", "coordinates": [144.83071983, -37.86692411]}}, {"type": "Feature", "properties": {"stop_id": "26312", "stop_name": "Westona Rail Replacement Bus Stop", "routes": ["Replacement Bus"], "is_terminal": false, "mode": "train"}, "geometry": {"type": "Point", "coordinates": [144.81248051, -37.86444176]}}, {"type": "Feature", "properties": {"stop_id": "26213", "stop_name": "Laverton Rail Replacement Bus Stop", "routes": ["Replacement Bus"], "is_terminal": false, "mode": "train"}, "geometry": {"type": "Point", "coordinates": [144.77177811, -37.86436303]}}, {"type": "Feature", "properties": {"stop_id": "26100", "stop_name": "Aircraft Rail Replacement Bus Stop", "routes": ["Replacement Bus"], "is_terminal": false, "mode": "train"}, "geometry": {"type": "Point", "coordinates": [144.7608956, -37.86713926]}}, {"type": "Feature", "properties": {"stop_id": "26313", "stop_name": "Williams Landing Rail Replacement Bus Stop", "routes": ["Replacement Bus"], "is_terminal": false, "mode": "train"}, "geometry": {"type": "Point", "coordinates": [144.74828641, -37.86947592]}}, {"type": "Feature", "properties": {"stop_id": "26197", "stop_name": "Hoppers Crossing Rail Replacement Bus Stop", "routes": ["Replacement Bus"], "is_terminal": false, "mode": "train"}, "geometry": {"type": "Point", "coordinates": [144.70072024, -37.88314544]}}, {"type": "Feature", "properties": {"stop_id": "26307", "stop_name": "Werribee Rail Replacement Bus Stop", "routes": ["Replacement Bus"], "is_terminal": true, "mode": "train"}, "geometry": {"type": "Point", "coordinates": [144.66050692, -37.89892435]}}, {"type": "Feature", "properties": {"stop_id": "26310", "stop_name": "Westall Rail Replacement Bus Stop", "routes": ["Replacement Bus"], "is_terminal": true, "mode": "train"}, "geometry": {"type": "Point", "coordinates": [145.13847296, -37.93786371]}}, {"type": "Feature", "properties": {"stop_id": "26285", "stop_name": "Springvale Rail Replacement Bus Stop", "routes": ["Replacement Bus"], "is_terminal": false, "mode": "train"}, "geometry": {"type": "Point", "coordinates": [145.15347513, -37.94994172]}}, {"type": "Feature", "properties": {"stop_id": "26273", "stop_name": "Sandown Park Rail Replacement Bus Stop", "routes": ["Replacement Bus"], "is_terminal": false, "mode": "train"}, "geometry": {"type": "Point", "coordinates": [145.16259071, -37.9568073]}}, {"type": "Feature", "properties": {"stop_id": "26243", "stop_name": "Noble Park Rail Replacement Bus Stop", "routes": ["Replacement Bus"], "is_terminal": false, "mode": "train"}, "geometry": {"type": "Point", "coordinates": [145.17621817, -37.96632864]}}, {"type": "Feature", "properties": {"stop_id": "26318", "stop_name": "Yarraman Rail Replacement Bus Stop", "routes": ["Replacement Bus"], "is_terminal": false, "mode": "train"}, "geometry": {"type": "Point", "coordinates": [145.19183585, -37.97793373]}}, {"type": "Feature", "properties": {"stop_id": "26149", "stop_name": "Dandenong Rail Replacement Bus Stop", "routes": ["Replacement Bus"], "is_terminal": true, "mode": "train"}, "geometry": {"type": "Point", "coordinates": [145.20997075, -37.99064754]}}, {"type": "Feature", "properties": {"stop_id": "26161", "stop_name": "Elsternwick Rail Replacement Bus Stop", "routes": ["Replacement Bus"], "is_terminal": true, "mode": "train"}, "geometry": {"type": "Point", "coordinates": [145.00030826, -37.88511257]}}, {"type": "Feature", "properties": {"stop_id": "26266", "stop_name": "Ripponlea Rail Replacement Bus Stop", "routes": ["Replacement Bus"], "is_terminal": false, "mode": "train"}, "geometry": {"type": "Point", "coordinates": [144.99787412, -37.87716791]}}, {"type": "Feature", "properties": {"stop_id": "26111", "stop_name": "Balaclava Rail Replacement Bus Stop", "routes": ["Replacement Bus"], "is_terminal": false, "mode": "train"}, "geometry": {"type": "Point", "coordinates": [144.99332639, -37.86879066]}}, {"type": "Feature", "properties": {"stop_id": "26317", "stop_name": "Windsor Rail Replacement Bus Stop", "routes": ["Replacement Bus"], "is_terminal": false, "mode": "train"}, "geometry": {"type": "Point", "coordinates": [144.99245954, -37.85633067]}}, {"type": "Feature", "properties": {"stop_id": "26259", "stop_name": "Prahran Rail Replacement Bus Stop", "routes": ["Replacement Bus"], "is_terminal": false, "mode": "train"}, "geometry": {"type": "Point", "coordinates": [144.98929784, -37.85138333]}}, {"type": "Feature", "properties": {"stop_id": "26281", "stop_name": "South Yarra Rail Replacement Bus Stop", "routes": ["Replacement Bus"], "is_terminal": false, "mode": "train"}, "geometry": {"type": "Point", "coordinates": [144.9921992, -37.83911378]}}, {"type": "Feature", "properties": {"stop_id": "26263", "stop_name": "Richmond Rail Replacement Bus Stop", "routes": ["Replacement Bus"], "is_terminal": false, "mode": "train"}, "geometry": {"type": "Point", "coordinates": [144.98957471, -37.82486644]}}, {"type": "Feature", "properties": {"stop_id": "26256", "stop_name": "Parliament Rail Replacement Bus Stop", "routes": ["Replacement Bus"], "is_terminal": true, "mode": "train"}, "geometry": {"type": "Point", "coordinates": [144.97357051, -37.81268753]}}, {"type": "Feature", "properties": {"stop_id": "15337", "stop_name": "Hurstbridge Station", "routes": ["Hurstbridge"], "is_terminal": true, "mode": "train"}, "geometry": {"type": "Point", "coordinates": [145.19196721, -37.63957765]}}, {"type": "Feature", "properties": {"stop_id": "15336", "stop_name": "Wattle Glen Station", "routes": ["Hurstbridge"], "is_terminal": false, "mode": "train"}, "geometry": {"type": "Point", "coordinates": [145.18169298, -37.66400518]}}, {"type": "Feature", "properties": {"stop_id": "15335", "stop_name": "Diamond Creek Station", "routes": ["Hurstbridge"], "is_terminal": false, "mode": "train"}, "geometry": {"type": "Point", "coordinates": [145.15820527, -37.67354508]}}, {"type": "Feature", "properties": {"stop_id": "15333", "stop_name": "Eltham Station", "routes": ["Hurstbridge"], "is_terminal": false, "mode": "train"}, "geometry": {"type": "Point", "coordinates": [145.14781539, -37.71336031]}}, {"type": "Feature", "properties": {"stop_id": "15331", "stop_name": "Montmorency Station", "routes": ["Hurstbridge"], "is_terminal": false, "mode": "train"}, "geometry": {"type": "Point", "coordinates": [145.12105171, -37.7152528]}}, {"type": "Feature", "properties": {"stop_id": "15329", "stop_name": "Greensborough Station", "routes": ["Hurstbridge"], "is_terminal": false, "mode": "train"}, "geometry": {"type": "Point", "coordinates": [145.10805466, -37.70395099]}}, {"type": "Feature", "properties": {"stop_id": "15327", "stop_name": "Watsonia Station", "routes": ["Hurstbridge"], "is_terminal": false, "mode": "train"}, "geometry": {"type": "Point", "coordinates": [145.08376908, -37.71102067]}}, {"type": "Feature", "properties": {"stop_id": "15326", "stop_name": "Macleod Station", "routes": ["Hurstbridge"], "is_terminal": false, "mode": "train"}, "geometry": {"type": "Point", "coordinates": [145.06918986, -37.72596801]}}, {"type": "Feature", "properties": {"stop_id": "13760", "stop_name": "Rosanna Station", "routes": ["Hurstbridge"], "is_terminal": false, "mode": "train"}, "geometry": {"type": "Point", "coordinates": [145.06629137, -37.74317848]}}, {"type": "Feature", "properties": {"stop_id": "13758", "stop_name": "Heidelberg Station", "routes": ["Hurstbridge"], "is_terminal": false, "mode": "train"}, "geometry": {"type": "Point", "coordinates": [145.06086541, -37.75713898]}}, {"type": "Feature", "properties": {"stop_id": "13756", "stop_name": "Eaglemont Station", "routes": ["Hurstbridge"], "is_terminal": false, "mode": "train"}, "geometry": {"type": "Point", "coordinates": [145.05378999, -37.76378127]}}, {"type": "Feature", "properties": {"stop_id": "13754", "stop_name": "Ivanhoe Station", "routes": ["Hurstbridge"], "is_terminal": false, "mode": "train"}, "geometry": {"type": "Point", "coordinates": [145.04542471, -37.76891476]}}, {"type": "Feature", "properties": {"stop_id": "13752", "stop_name": "Darebin Station", "routes": ["Hurstbridge"], "is_terminal": false, "mode": "train"}, "geometry": {"type": "Point", "coordinates": [145.03854407, -37.77496454]}}, {"type": "Feature", "properties": {"stop_id": "13750", "stop_name": "Alphington Station", "routes": ["Hurstbridge"], "is_terminal": false, "mode": "train"}, "geometry": {"type": "Point", "coordinates": [145.03125398, -37.77842966]}}, {"type": "Feature", "properties": {"stop_id": "13748", "stop_name": "Fairfield Station", "routes": ["Hurstbridge"], "is_terminal": false, "mode": "train"}, "geometry": {"type": "Point", "coordinates": [145.01697243, -37.77920843]}}, {"type": "Feature", "properties": {"stop_id": "13746", "stop_name": "Dennis Station", "routes": ["Hurstbridge"], "is_terminal": false, "mode": "train"}, "geometry": {"type": "Point", "coordinates": [145.00827495, -37.77921489]}}, {"type": "Feature", "properties": {"stop_id": "13744", "stop_name": "Westgarth Station", "routes": ["Hurstbridge"], "is_terminal": false, "mode": "train"}, "geometry": {"type": "Point", "coordinates": [144.99926602, -37.78066631]}}, {"type": "Feature", "properties": {"stop_id": "14330", "stop_name": "Clifton Hill Station", "routes": ["Hurstbridge", "Mernda"], "is_terminal": false, "mode": "train"}, "geometry": {"type": "Point", "coordinates": [144.99547418, -37.7886314]}}, {"type": "Feature", "properties": {"stop_id": "14332", "stop_name": "Victoria Park Station", "routes": ["Hurstbridge", "Mernda"], "is_terminal": false, "mode": "train"}, "geometry": {"type": "Point", "coordinates": [144.99444923, -37.79923889]}}, {"type": "Feature", "properties": {"stop_id": "14335", "stop_name": "Collingwood Station", "routes": ["Hurstbridge", "Mernda"], "is_terminal": false, "mode": "train"}, "geometry": {"type": "Point", "coordinates": [144.99377067, -37.80458937]}}, {"type": "Feature", "properties": {"stop_id": "14336", "stop_name": "North Richmond Station", "routes": ["Hurstbridge", "Mernda"], "is_terminal": false, "mode": "train"}, "geometry": {"type": "Point", "coordinates": [144.99251882, -37.81055187]}}, {"type": "Feature", "properties": {"stop_id": "14338", "stop_name": "West Richmond Station", "routes": ["Hurstbridge", "Mernda"], "is_terminal": false, "mode": "train"}, "geometry": {"type": "Point", "coordinates": [144.99140899, -37.81503885]}}, {"type": "Feature", "properties": {"stop_id": "14340", "stop_name": "Jolimont-MCG Station", "routes": ["Hurstbridge", "Mernda"], "is_terminal": false, "mode": "train"}, "geometry": {"type": "Point", "coordinates": [144.98392753, -37.81654212]}}, {"type": "Feature", "properties": {"stop_id": "11218", "stop_name": "Flinders Street Station", "routes": ["Frankston"], "is_terminal": true, "mode": "train"}, "geometry": {"type": "Point", "coordinates": [144.96667479, -37.8185074]}}, {"type": "Feature", "properties": {"stop_id": "12256", "stop_name": "Richmond Station", "routes": ["Frankston"], "is_terminal": false, "mode": "train"}, "geometry": {"type": "Point", "coordinates": [144.98960929, -37.82401091]}}, {"type": "Feature", "properties": {"stop_id": "14296", "stop_name": "South Yarra Station", "routes": ["Frankston"], "is_terminal": false, "mode": "train"}, "geometry": {"type": "Point", "coordinates": [144.99232817, -37.83854824]}}, {"type": "Feature", "properties": {"stop_id": "14268", "stop_name": "Hawksburn Station", "routes": ["Frankston"], "is_terminal": false, "mode": "train"}, "geometry": {"type": "Point", "coordinates": [145.00185687, -37.84463109]}}, {"type": "Feature", "properties": {"stop_id": "14264", "stop_name": "Toorak Station", "routes": ["Frankston"], "is_terminal": false, "mode": "train"}, "geometry": {"type": "Point", "coordinates": [145.01365939, -37.85074257]}}, {"type": "Feature", "properties": {"stop_id": "14260", "stop_name": "Armadale Station", "routes": ["Frankston"], "is_terminal": false, "mode": "train"}, "geometry": {"type": "Point", "coordinates": [145.01893876, -37.85604034]}}, {"type": "Feature", "properties": {"stop_id": "14256", "stop_name": "Malvern Station", "routes": ["Frankston"], "is_terminal": false, "mode": "train"}, "geometry": {"type": "Point", "coordinates": [145.0291912, -37.8662696]}}, {"type": "Feature", "properties": {"stop_id": "14252", "stop_name": "Caulfield Station", "routes": ["Frankston"], "is_terminal": false, "mode": "train"}, "geometry": {"type": "Point", "coordinates": [145.04231101, -37.8773748]}}, {"type": "Feature", "properties": {"stop_id": "14250", "stop_name": "Glen Huntly Station", "routes": ["Frankston"], "is_terminal": false, "mode": "train"}, "geometry": {"type": "Point", "coordinates": [145.04221593, -37.88998069]}}, {"type": "Feature", "properties": {"stop_id": "14247", "stop_name": "Ormond Station", "routes": ["Frankston"], "is_terminal": false, "mode": "train"}, "geometry": {"type": "Point", "coordinates": [145.03958364, -37.90390508]}}, {"type": "Feature", "properties": {"stop_id": "14244", "stop_name": "McKinnon Station", "routes": ["Frankston"], "is_terminal": false, "mode": "train"}, "geometry": {"type": "Point", "coordinates": [145.03827229, -37.91088534]}}, {"type": "Feature", "properties": {"stop_id": "14241", "stop_name": "Bentleigh Station", "routes": ["Frankston"], "is_terminal": false, "mode": "train"}, "geometry": {"type": "Point", "coordinates": [145.03716342, -37.91708494]}}, {"type": "Feature", "properties": {"stop_id": "14238", "stop_name": "Patterson Station", "routes": ["Frankston"], "is_terminal": false, "mode": "train"}, "geometry": {"type": "Point", "coordinates": [145.03568143, -37.92490039]}}, {"type": "Feature", "properties": {"stop_id": "14235", "stop_name": "Moorabbin Station", "routes": ["Frankston"], "is_terminal": false, "mode": "train"}, "geometry": {"type": "Point", "coordinates": [145.03682879, -37.93437282]}}, {"type": "Feature", "properties": {"stop_id": "14232", "stop_name": "Highett Station", "routes": ["Frankston"], "is_terminal": false, "mode": "train"}, "geometry": {"type": "Point", "coordinates": [145.04194005, -37.94842614]}}, {"type": "Feature", "properties": {"stop_id": "26528", "stop_name": "Southland Station", "routes": ["Frankston"], "is_terminal": false, "mode": "train"}, "geometry": {"type": "Point", "coordinates": [145.04912085, -37.95875571]}}, {"type": "Feature", "properties": {"stop_id": "11244", "stop_name": "Cheltenham Station", "routes": ["Frankston"], "is_terminal": false, "mode": "train"}, "geometry": {"type": "Point", "coordinates": [145.05442877, -37.9663684]}}, {"type": "Feature", "properties": {"stop_id": "11241", "stop_name": "Mentone Station", "routes": ["Frankston"], "is_terminal": false, "mode": "train"}, "geometry": {"type": "Point", "coordinates": [145.06615539, -37.9832064]}}, {"type": "Feature", "properties": {"stop_id": "11239", "stop_name": "Parkdale Station", "routes": ["Frankston"], "is_terminal": false, "mode": "train"}, "geometry": {"type": "Point", "coordinates": [145.07602727, -37.99277653]}}, {"type": "Feature", "properties": {"stop_id": "11237", "stop_name": "Mordialloc Station", "routes": ["Frankston"], "is_terminal": false, "mode": "train"}, "geometry": {"type": "Point", "coordinates": [145.08730286, -38.00583819]}}, {"type": "Feature", "properties": {"stop_id": "11235", "stop_name": "Aspendale Station", "routes": ["Frankston"], "is_terminal": false, "mode": "train"}, "geometry": {"type": "Point", "coordinates": [145.10215031, -38.02719317]}}, {"type": "Feature", "properties": {"stop_id": "11233", "stop_name": "Edithvale Station", "routes": ["Frankston"], "is_terminal": false, "mode": "train"}, "geometry": {"type": "Point", "coordinates": [145.10750992, -38.03629124]}}, {"type": "Feature", "properties": {"stop_id": "11231", "stop_name": "Chelsea Station", "routes": ["Frankston"], "is_terminal": false, "mode": "train"}, "geometry": {"type": "Point", "coordinates": [145.11663739, -38.05315447]}}, {"type": "Feature", "properties": {"stop_id": "11229", "stop_name": "Bonbeach Station", "routes": ["Frankston"], "is_terminal": false, "mode": "train"}, "geometry": {"type": "Point", "coordinates": [145.12017209, -38.06555701]}}, {"type": "Feature", "properties": {"stop_id": "11227", "stop_name": "Carrum Station", "routes": ["Frankston"], "is_terminal": false, "mode": "train"}, "geometry": {"type": "Point", "coordinates": [145.12308355, -38.07740878]}}, {"type": "Feature", "properties": {"stop_id": "11225", "stop_name": "Seaford Station", "routes": ["Frankston"], "is_terminal": false, "mode": "train"}, "geometry": {"type": "Point", "coordinates": [145.12826368, -38.10405762]}}, {"type": "Feature", "properties": {"stop_id": "11223", "stop_name": "Kananook Station", "routes": ["Frankston"], "is_terminal": false, "mode": "train"}, "geometry": {"type": "Point", "coordinates": [145.13538587, -38.12177051]}}, {"type": "Feature", "properties": {"stop_id": "11221", "stop_name": "Frankston Station", "routes": ["Frankston"], "is_terminal": true, "mode": "train"}, "geometry": {"type": "Point", "coordinates": [145.12619247, -38.14270218]}}, {"type": "Feature", "properties": {"stop_id": "26135", "stop_name": "Caulfield Rail Replacement Bus Stop", "routes": ["Replacement Bus"], "is_terminal": true, "mode": "train"}, "geometry": {"type": "Point", "coordinates": [145.04199844, -37.87758588]}}, {"type": "Feature", "properties": {"stop_id": "26128", "stop_name": "Burnley Rail Replacement Bus Stop", "routes": ["Replacement Bus"], "is_terminal": true, "mode": "train"}, "geometry": {"type": "Point", "coordinates": [145.00710276, -37.82832757]}}, {"type": "Feature", "properties": {"stop_id": "26144", "stop_name": "Craigieburn Rail Replacement Bus Stop", "routes": ["Replacement Bus"], "is_terminal": true, "mode": "train"}, "geometry": {"type": "Point", "coordinates": [144.94247408, -37.60210856]}}, {"type": "Feature", "properties": {"stop_id": "26269", "stop_name": "Roxburgh Park Rail Replacement Bus Stop", "routes": ["Replacement Bus"], "is_terminal": false, "mode": "train"}, "geometry": {"type": "Point", "coordinates": [144.93492007, -37.63891666]}}, {"type": "Feature", "properties": {"stop_id": "26143", "stop_name": "Coolaroo Rail Replacement Bus Stop", "routes": ["Replacement Bus"], "is_terminal": false, "mode": "train"}, "geometry": {"type": "Point", "coordinates": [144.92502195, -37.66066893]}}, {"type": "Feature", "properties": {"stop_id": "26126", "stop_name": "Broadmeadows Rail Replacement Bus Stop", "routes": ["Replacement Bus"], "is_terminal": false, "mode": "train"}, "geometry": {"type": "Point", "coordinates": [144.91882061, -37.68341377]}}, {"type": "Feature", "properties": {"stop_id": "26181", "stop_name": "Glenroy Rail Replacement Bus Stop", "routes": ["Replacement Bus"], "is_terminal": false, "mode": "train"}, "geometry": {"type": "Point", "coordinates": [144.91577356, -37.70435755]}}, {"type": "Feature", "properties": {"stop_id": "26250", "stop_name": "Oak Park Rail Replacement Bus Stop", "routes": ["Replacement Bus"], "is_terminal": false, "mode": "train"}, "geometry": {"type": "Point", "coordinates": [144.91989804, -37.7178941]}}, {"type": "Feature", "properties": {"stop_id": "26257", "stop_name": "Pascoe Vale Rail Replacement Bus Stop", "routes": ["Replacement Bus"], "is_terminal": false, "mode": "train"}, "geometry": {"type": "Point", "coordinates": [144.92818064, -37.72966526]}}, {"type": "Feature", "properties": {"stop_id": "26288", "stop_name": "Strathmore Rail Replacement Bus Stop", "routes": ["Replacement Bus"], "is_terminal": false, "mode": "train"}, "geometry": {"type": "Point", "coordinates": [144.92784535, -37.74413233]}}, {"type": "Feature", "properties": {"stop_id": "26178", "stop_name": "Glenbervie Rail Replacement Bus Stop", "routes": ["Replacement Bus"], "is_terminal": false, "mode": "train"}, "geometry": {"type": "Point", "coordinates": [144.92037049, -37.74804693]}}, {"type": "Feature", "properties": {"stop_id": "26164", "stop_name": "Essendon Rail Replacement Bus Stop", "routes": ["Replacement Bus"], "is_terminal": false, "mode": "train"}, "geometry": {"type": "Point", "coordinates": [144.9167017, -37.75624591]}}, {"type": "Feature", "properties": {"stop_id": "26232", "stop_name": "Moonee Ponds Rail Replacement Bus Stop", "routes": ["Replacement Bus"], "is_terminal": false, "mode": "train"}, "geometry": {"type": "Point", "coordinates": [144.91941511, -37.76553993]}}, {"type": "Feature", "properties": {"stop_id": "26107", "stop_name": "Ascot Vale Rail Replacement Bus Stop", "routes": ["Replacement Bus"], "is_terminal": false, "mode": "train"}, "geometry": {"type": "Point", "coordinates": [144.92331791, -37.77657611]}}, {"type": "Feature", "properties": {"stop_id": "26241", "stop_name": "Newmarket Rail Replacement Bus Stop", "routes": ["Replacement Bus"], "is_terminal": false, "mode": "train"}, "geometry": {"type": "Point", "coordinates": [144.92804279, -37.78789698]}}, {"type": "Feature", "properties": {"stop_id": "26208", "stop_name": "Kensington Rail Replacement Bus Stop", "routes": ["Replacement Bus"], "is_terminal": false, "mode": "train"}, "geometry": {"type": "Point", "coordinates": [144.93104686, -37.79418592]}}, {"type": "Feature", "properties": {"stop_id": "26245", "stop_name": "North Melbourne Rail Replacement Bus Stop", "routes": ["Replacement Bus"], "is_terminal": true, "mode": "train"}, "geometry": {"type": "Point", "coordinates": [144.94270106, -37.80678123]}}, {"type": "Feature", "properties": {"stop_id": "13732", "stop_name": "Werribee Station", "routes": ["Werribee"], "is_terminal": true, "mode": "train"}, "geometry": {"type": "Point", "coordinates": [144.66111459, -37.89948611]}}, {"type": "Feature", "properties": {"stop_id": "13734", "stop_name": "Hoppers Crossing Station", "routes": ["Werribee"], "is_terminal": false, "mode": "train"}, "geometry": {"type": "Point", "coordinates": [144.70104751, -37.88322392]}}, {"type": "Feature", "properties": {"stop_id": "26540", "stop_name": "Williams Landing Station", "routes": ["Werribee"], "is_terminal": false, "mode": "train"}, "geometry": {"type": "Point", "coordinates": [144.74655812, -37.87023584]}}, {"type": "Feature", "properties": {"stop_id": "13738", "stop_name": "Aircraft Station", "routes": ["Werribee"], "is_terminal": false, "mode": "train"}, "geometry": {"type": "Point", "coordinates": [144.76090332, -37.86650861]}}, {"type": "Feature", "properties": {"stop_id": "13736", "stop_name": "Laverton Station", "routes": ["Werribee"], "is_terminal": false, "mode": "train"}, "geometry": {"type": "Point", "coordinates": [144.77203567, -37.86373711]}}, {"type": "Feature", "properties": {"stop_id": "13740", "stop_name": "Westona Station", "routes": ["Werribee"], "is_terminal": false, "mode": "train"}, "geometry": {"type": "Point", "coordinates": [144.81343676, -37.86516243]}}, {"type": "Feature", "properties": {"stop_id": "13742", "stop_name": "Altona Station", "routes": ["Werribee"], "is_terminal": false, "mode": "train"}, "geometry": {"type": "Point", "coordinates": [144.83009787, -37.86720101]}}, {"type": "Feature", "properties": {"stop_id": "13743", "stop_name": "Seaholme Station", "routes": ["Werribee"], "is_terminal": false, "mode": "train"}, "geometry": {"type": "Point", "coordinates": [144.84096935, -37.86783351]}}, {"type": "Feature", "properties": {"stop_id": "15343", "stop_name": "Newport Station", "routes": ["Werribee", "Williamstown"], "is_terminal": false, "mode": "train"}, "geometry": {"type": "Point", "coordinates": [144.88352816, -37.84284244]}}, {"type": "Feature", "properties": {"stop_id": "15345", "stop_name": "Spotswood Station", "routes": ["Werribee", "Williamstown"], "is_terminal": false, "mode": "train"}, "geometry": {"type": "Point", "coordinates": [144.88588983, -37.83057501]}}, {"type": "Feature", "properties": {"stop_id": "15347", "stop_name": "Yarraville Station", "routes": ["Werribee", "Williamstown"], "is_terminal": false, "mode": "train"}, "geometry": {"type": "Point", "coordinates": [144.88982921, -37.81592968]}}, {"type": "Feature", "properties": {"stop_id": "15349", "stop_name": "Seddon Station", "routes": ["Werribee", "Williamstown"], "is_terminal": false, "mode": "train"}, "geometry": {"type": "Point", "coordinates": [144.8956504, -37.80895069]}}, {"type": "Feature", "properties": {"stop_id": "26508", "stop_name": "Footscray Station", "routes": ["Werribee", "Williamstown"], "is_terminal": false, "mode": "train"}, "geometry": {"type": "Point", "coordinates": [144.90244301, -37.80171835]}}, {"type": "Feature", "properties": {"stop_id": "15522", "stop_name": "South Kensington Station", "routes": ["Werribee", "Williamstown"], "is_terminal": false, "mode": "train"}, "geometry": {"type": "Point", "coordinates": [144.92538929, -37.79953848]}}, {"type": "Feature", "properties": {"stop_id": "14328", "stop_name": "North Melbourne Station", "routes": ["Werribee", "Williamstown"], "is_terminal": false, "mode": "train"}, "geometry": {"type": "Point", "coordinates": [144.94205915, -37.80740084]}}, {"type": "Feature", "properties": {"stop_id": "22192", "stop_name": "Southern Cross Station", "routes": ["Werribee", "Williamstown"], "is_terminal": false, "mode": "train"}, "geometry": {"type": "Point", "coordinates": [144.95167965, -37.81849983]}}, {"type": "Feature", "properties": {"stop_id": "12205", "stop_name": "Flinders Street Station", "routes": ["Werribee"], "is_terminal": true, "mode": "train"}, "geometry": {"type": "Point", "coordinates": [144.96671823, -37.81858025]}}, {"type": "Feature", "properties": {"stop_id": "15338", "stop_name": "Williamstown Station", "routes": ["Williamstown"], "is_terminal": true, "mode": "train"}, "geometry": {"type": "Point", "coordinates": [144.90518926, -37.86766943]}}, {"type": "Feature", "properties": {"stop_id": "15339", "stop_name": "Williamstown Beach Station", "routes": ["Williamstown"], "is_terminal": false, "mode": "train"}, "geometry": {"type": "Point", "coordinates": [144.8943476, -37.86397044]}}, {"type": "Feature", "properties": {"stop_id": "15341", "stop_name": "North Williamstown Station", "routes": ["Williamstown"], "is_terminal": false, "mode": "train"}, "geometry": {"type": "Point", "coordinates": [144.88890497, -37.85712326]}}, {"type": "Feature", "properties": {"stop_id": "12203", "stop_name": "Flinders Street Station", "routes": ["Williamstown"], "is_terminal": true, "mode": "train"}, "geometry": {"type": "Point", "coordinates": [144.966736, -37.81876079]}}, {"type": "Feature", "properties": {"stop_id": "26216", "stop_name": "Lynbrook Rail Replacement Bus Stop", "routes": ["Replacement Bus"], "is_terminal": false, "mode": "train"}, "geometry": {"type": "Point", "coordinates": [145.25075934, -38.05866999]}}, {"type": "Feature", "properties": {"stop_id": "26223", "stop_name": "Merinda Park Rail Replacement Bus Stop", "routes": ["Replacement Bus"], "is_terminal": false, "mode": "train"}, "geometry": {"type": "Point", "coordinates": [145.26432993, -38.07958031]}}, {"type": "Feature", "properties": {"stop_id": "26145", "stop_name": "Cranbourne Rail Replacement Bus Stop", "routes": ["Replacement Bus"], "is_terminal": true, "mode": "train"}, "geometry": {"type": "Point", "coordinates": [145.28117279, -38.10035676]}}, {"type": "Feature", "properties": {"stop_id": "11197", "stop_name": "Alamein Station", "routes": ["Alamein"], "is_terminal": true, "mode": "train"}, "geometry": {"type": "Point", "coordinates": [145.07970463, -37.86818601]}}, {"type": "Feature", "properties": {"stop_id": "11198", "stop_name": "Ashburton Station", "routes": ["Alamein"], "is_terminal": false, "mode": "train"}, "geometry": {"type": "Point", "coordinates": [145.08134329, -37.86198555]}}, {"type": "Feature", "properties": {"stop_id": "11200", "stop_name": "Burwood Station", "routes": ["Alamein"], "is_terminal": false, "mode": "train"}, "geometry": {"type": "Point", "coordinates": [145.08046586, -37.85155353]}}, {"type": "Feature", "properties": {"stop_id": "11202", "stop_name": "Hartwell Station", "routes": ["Alamein"], "is_terminal": false, "mode": "train"}, "geometry": {"type": "Point", "coordinates": [145.07550115, -37.84404669]}}, {"type": "Feature", "properties": {"stop_id": "11203", "stop_name": "Willison Station", "routes": ["Alamein"], "is_terminal": false, "mode": "train"}, "geometry": {"type": "Point", "coordinates": [145.0702746, -37.83572429]}}, {"type": "Feature", "properties": {"stop_id": "11205", "stop_name": "Riversdale Station", "routes": ["Alamein"], "is_terminal": false, "mode": "train"}, "geometry": {"type": "Point", "coordinates": [145.06961496, -37.83138777]}}, {"type": "Feature", "properties": {"stop_id": "11207", "stop_name": "Camberwell Station", "routes": ["Alamein"], "is_terminal": true, "mode": "train"}, "geometry": {"type": "Point", "coordinates": [145.05825073, -37.82669496]}}, {"type": "Feature", "properties": {"stop_id": "26517", "stop_name": "Mernda Station", "routes": ["Mernda"], "is_terminal": true, "mode": "train"}, "geometry": {"type": "Point", "coordinates": [145.10098153, -37.60231521]}}, {"type": "Feature", "properties": {"stop_id": "26511", "stop_name": "Hawkstowe Station", "routes": ["Mernda"], "is_terminal": false, "mode": "train"}, "geometry": {"type": "Point", "coordinates": [145.09743269, -37.622896]}}, {"type": "Feature", "properties": {"stop_id": "26519", "stop_name": "Middle Gorge Station", "routes": ["Mernda"], "is_terminal": false, "mode": "train"}, "geometry": {"type": "Point", "coordinates": [145.09244475, -37.64382284]}}, {"type": "Feature", "properties": {"stop_id": "26522", "stop_name": "South Morang Station", "routes": ["Mernda"], "is_terminal": false, "mode": "train"}, "geometry": {"type": "Point", "coordinates": [145.06766922, -37.64907911]}}, {"type": "Feature", "properties": {"stop_id": "15366", "stop_name": "Epping Station", "routes": ["Mernda"], "is_terminal": false, "mode": "train"}, "geometry": {"type": "Point", "coordinates": [145.03147493, -37.65222049]}}, {"type": "Feature", "properties": {"stop_id": "15368", "stop_name": "Lalor Station", "routes": ["Mernda"], "is_terminal": false, "mode": "train"}, "geometry": {"type": "Point", "coordinates": [145.01734, -37.66587124]}}, {"type": "Feature", "properties": {"stop_id": "15370", "stop_name": "Thomastown Station", "routes": ["Mernda"], "is_terminal": false, "mode": "train"}, "geometry": {"type": "Point", "coordinates": [145.01434735, -37.68032122]}}, {"type": "Feature", "properties": {"stop_id": "15371", "stop_name": "Keon Park Station", "routes": ["Mernda"], "is_terminal": false, "mode": "train"}, "geometry": {"type": "Point", "coordinates": [145.01175821, -37.69575118]}}, {"type": "Feature", "properties": {"stop_id": "15373", "stop_name": "Ruthven Station", "routes": ["Mernda"], "is_terminal": false, "mode": "train"}, "geometry": {"type": "Point", "coordinates": [145.00948212, -37.70791498]}}, {"type": "Feature", "properties": {"stop_id": "15375", "stop_name": "Reservoir Station", "routes": ["Mernda"], "is_terminal": false, "mode": "train"}, "geometry": {"type": "Point", "coordinates": [145.0071027, -37.71670648]}}, {"type": "Feature", "properties": {"stop_id": "15377", "stop_name": "Regent Station", "routes": ["Mernda"], "is_terminal": false, "mode": "train"}, "geometry": {"type": "Point", "coordinates": [145.00280441, -37.72848442]}}, {"type": "Feature", "properties": {"stop_id": "15379", "stop_name": "Preston Station", "routes": ["Mernda"], "is_terminal": false, "mode": "train"}, "geometry": {"type": "Point", "coordinates": [145.00058495, -37.73886456]}}, {"type": "Feature", "properties": {"stop_id": "15381", "stop_name": "Bell Station", "routes": ["Mernda"], "is_terminal": false, "mode": "train"}, "geometry": {"type": "Point", "coordinates": [145.00029087, -37.745997]}}, {"type": "Feature", "properties": {"stop_id": "15383", "stop_name": "Thornbury Station", "routes": ["Mernda"], "is_terminal": false, "mode": "train"}, "geometry": {"type": "Point", "coordinates": [144.998628, -37.75506176]}}, {"type": "Feature", "properties": {"stop_id": "15385", "stop_name": "Croxton Station", "routes": ["Mernda"], "is_terminal": false, "mode": "train"}, "geometry": {"type": "Point", "coordinates": [144.99708925, -37.76413761]}}, {"type": "Feature", "properties": {"stop_id": "15387", "stop_name": "Northcote Station", "routes": ["Mernda"], "is_terminal": false, "mode": "train"}, "geometry": {"type": "Point", "coordinates": [144.99529893, -37.76990179]}}, {"type": "Feature", "properties": {"stop_id": "15389", "stop_name": "Merri Station", "routes": ["Mernda"], "is_terminal": false, "mode": "train"}, "geometry": {"type": "Point", "coordinates": [144.99302679, -37.77793772]}}, {"type": "Feature", "properties": {"stop_id": "15391", "stop_name": "Rushall Station", "routes": ["Mernda"], "is_terminal": false, "mode": "train"}, "geometry": {"type": "Point", "coordinates": [144.99243075, -37.78318147]}}, {"type": "Feature", "properties": {"stop_id": "12165", "stop_name": "Lilydale Station", "routes": ["Lilydale"], "is_terminal": true, "mode": "train"}, "geometry": {"type": "Point", "coordinates": [145.34571994, -37.75722021]}}, {"type": "Feature", "properties": {"stop_id": "12166", "stop_name": "Mooroolbark Station", "routes": ["Lilydale"], "is_terminal": false, "mode": "train"}, "geometry": {"type": "Point", "coordinates": [145.31307216, -37.78475842]}}, {"type": "Feature", "properties": {"stop_id": "12168", "stop_name": "Croydon Station", "routes": ["Lilydale"], "is_terminal": false, "mode": "train"}, "geometry": {"type": "Point", "coordinates": [145.28073944, -37.79520472]}}, {"type": "Feature", "properties": {"stop_id": "12170", "stop_name": "Ringwood East Station", "routes": ["Lilydale"], "is_terminal": false, "mode": "train"}, "geometry": {"type": "Point", "coordinates": [145.24994534, -37.81178415]}}, {"type": "Feature", "properties": {"stop_id": "12237", "stop_name": "Ringwood Station", "routes": ["Belgrave", "Lilydale"], "is_terminal": false, "mode": "train"}, "geometry": {"type": "Point", "coordinates": [145.22888703, -37.81596637]}}, {"type": "Feature", "properties": {"stop_id": "12234", "stop_name": "Heatherdale Station", "routes": ["Belgrave", "Lilydale"], "is_terminal": false, "mode": "train"}, "geometry": {"type": "Point", "coordinates": [145.21406065, -37.81885161]}}, {"type": "Feature", "properties": {"stop_id": "12232", "stop_name": "Mitcham Station", "routes": ["Belgrave", "Lilydale"], "is_terminal": false, "mode": "train"}, "geometry": {"type": "Point", "coordinates": [145.1932336, -37.81804724]}}, {"type": "Feature", "properties": {"stop_id": "12230", "stop_name": "Nunawading Station", "routes": ["Belgrave", "Lilydale"], "is_terminal": false, "mode": "train"}, "geometry": {"type": "Point", "coordinates": [145.17487078, -37.82053075]}}, {"type": "Feature", "properties": {"stop_id": "12226", "stop_name": "Blackburn Station", "routes": ["Belgrave", "Lilydale"], "is_terminal": false, "mode": "train"}, "geometry": {"type": "Point", "coordinates": [145.15006717, -37.82019776]}}, {"type": "Feature", "properties": {"stop_id": "12225", "stop_name": "Laburnum Station", "routes": ["Belgrave", "Lilydale"], "is_terminal": false, "mode": "train"}, "geometry": {"type": "Point", "coordinates": [145.14086283, -37.8207377]}}, {"type": "Feature", "properties": {"stop_id": "12221", "stop_name": "Box Hill Station", "routes": ["Belgrave", "Lilydale"], "is_terminal": false, "mode": "train"}, "geometry": {"type": "Point", "coordinates": [145.12183478, -37.81934528]}}, {"type": "Feature", "properties": {"stop_id": "26535", "stop_name": "Union Station", "routes": ["Belgrave", "Lilydale"], "is_terminal": false, "mode": "train"}, "geometry": {"type": "Point", "coordinates": [145.10157028, -37.82234572]}}, {"type": "Feature", "properties": {"stop_id": "12212", "stop_name": "Chatham Station", "routes": ["Belgrave", "Lilydale"], "is_terminal": false, "mode": "train"}, "geometry": {"type": "Point", "coordinates": [145.08872789, -37.82428279]}}, {"type": "Feature", "properties": {"stop_id": "12210", "stop_name": "Canterbury Station", "routes": ["Belgrave", "Lilydale"], "is_terminal": false, "mode": "train"}, "geometry": {"type": "Point", "coordinates": [145.08153203, -37.82444513]}}, {"type": "Feature", "properties": {"stop_id": "12206", "stop_name": "East Camberwell Station", "routes": ["Belgrave", "Lilydale"], "is_terminal": false, "mode": "train"}, "geometry": {"type": "Point", "coordinates": [145.06824844, -37.82584107]}}, {"type": "Feature", "properties": {"stop_id": "11208", "stop_name": "Camberwell Station", "routes": ["Belgrave", "Lilydale"], "is_terminal": false, "mode": "train"}, "geometry": {"type": "Point", "coordinates": [145.05825356, -37.82658686]}}, {"type": "Feature", "properties": {"stop_id": "12238", "stop_name": "Auburn Station", "routes": ["Belgrave", "Lilydale"], "is_terminal": false, "mode": "train"}, "geometry": {"type": "Point", "coordinates": [145.04590799, -37.82254356]}}, {"type": "Feature", "properties": {"stop_id": "12241", "stop_name": "Glenferrie Station", "routes": ["Belgrave", "Lilydale"], "is_terminal": false, "mode": "train"}, "geometry": {"type": "Point", "coordinates": [145.03645772, -37.82161133]}}, {"type": "Feature", "properties": {"stop_id": "12244", "stop_name": "Hawthorn Station", "routes": ["Belgrave", "Lilydale"], "is_terminal": false, "mode": "train"}, "geometry": {"type": "Point", "coordinates": [145.02336616, -37.82176176]}}, {"type": "Feature", "properties": {"stop_id": "12248", "stop_name": "Burnley Station", "routes": ["Belgrave", "Lilydale"], "is_terminal": false, "mode": "train"}, "geometry": {"type": "Point", "coordinates": [145.00768997, -37.82761657]}}, {"type": "Feature", "properties": {"stop_id": "12260", "stop_name": "Richmond Station", "routes": ["Belgrave", "Lilydale"], "is_terminal": false, "mode": "train"}, "geometry": {"type": "Point", "coordinates": [144.98968378, -37.82377788]}}, {"type": "Feature", "properties": {"stop_id": "11214", "stop_name": "Flinders Street Station", "routes": ["Glen Waverley", "Lilydale"], "is_terminal": true, "mode": "train"}, "geometry": {"type": "Point", "coordinates": [144.96652423, -37.8181984]}}, {"type": "Feature", "properties": {"stop_id": "26315", "stop_name": "Williamstown Rail Replacement Bus Stop", "routes": ["Replacement Bus"], "is_terminal": true, "mode": "train"}, "geometry": {"type": "Point", "coordinates": [144.90547637, -37.8675664]}}, {"type": "Feature", "properties": {"stop_id": "26314", "stop_name": "Williamstown Beach Rail Replacement Bus Stop", "routes": ["Replacement Bus"], "is_terminal": false, "mode": "train"}, "geometry": {"type": "Point", "coordinates": [144.89494197, -37.86385491]}}, {"type": "Feature", "properties": {"stop_id": "26247", "stop_name": "North Williamstown Rail Replacement Bus Stop", "routes": ["Replacement Bus"], "is_terminal": false, "mode": "train"}, "geometry": {"type": "Point", "coordinates": [144.8905649, -37.85750447]}}, {"type": "Feature", "properties": {"stop_id": "26284", "stop_name": "Spotswood Rail Replacement Bus Stop", "routes": ["Replacement Bus"], "is_terminal": false, "mode": "train"}, "geometry": {"type": "Point", "coordinates": [144.88684338, -37.82980812]}}, {"type": "Feature", "properties": {"stop_id": "26319", "stop_name": "Yarraville Rail Replacement Bus Stop", "routes": ["Replacement Bus"], "is_terminal": false, "mode": "train"}, "geometry": {"type": "Point", "coordinates": [144.88933356, -37.81618213]}}, {"type": "Feature", "properties": {"stop_id": "26277", "stop_name": "Seddon Rail Replacement Bus Stop", "routes": ["Replacement Bus"], "is_terminal": false, "mode": "train"}, "geometry": {"type": "Point", "coordinates": [144.89499066, -37.80898396]}}, {"type": "Feature", "properties": {"stop_id": "26279", "stop_name": "South Kensington Rail Replacement Bus Stop", "routes": ["Replacement Bus"], "is_terminal": false, "mode": "train"}, "geometry": {"type": "Point", "coordinates": [144.92062119, -37.79825583]}}, {"type": "Feature", "properties": {"stop_id": "11217", "stop_name": "Flinders Street Station", "routes": ["Flemington Racecourse"], "is_terminal": true, "mode": "train"}, "geometry": {"type": "Point", "coordinates": [144.96664271, -37.81843476]}}, {"type": "Feature", "properties": {"stop_id": "15524", "stop_name": "Flemington Racecourse Station", "routes": ["Flemington Racecourse"], "is_terminal": true, "mode": "train"}, "geometry": {"type": "Point", "coordinates": [144.90710939, -37.78768905]}}, {"type": "Feature", "properties": {"stop_id": "26554", "stop_name": "Town Hall Station", "routes": ["Sunbury"], "is_terminal": true, "mode": "train"}, "geometry": {"type": "Point", "coordinates": [144.96672993, -37.81608419]}}, {"type": "Feature", "properties": {"stop_id": "26552", "stop_name": "State Library Station", "routes": ["Sunbury"], "is_terminal": false, "mode": "train"}, "geometry": {"type": "Point", "coordinates": [144.96311741, -37.80823559]}}, {"type": "Feature", "properties": {"stop_id": "26550", "stop_name": "Parkville Station", "routes": ["Sunbury"], "is_terminal": false, "mode": "train"}, "geometry": {"type": "Point", "coordinates": [144.95920091, -37.79990399]}}, {"type": "Feature", "properties": {"stop_id": "26548", "stop_name": "Arden Station", "routes": ["Sunbury"], "is_terminal": false, "mode": "train"}, "geometry": {"type": "Point", "coordinates": [144.939724, -37.80151139]}}, {"type": "Feature", "properties": {"stop_id": "15519", "stop_name": "Footscray Station", "routes": ["Sunbury"], "is_terminal": false, "mode": "train"}, "geometry": {"type": "Point", "coordinates": [144.90207529, -37.80146849]}}, {"type": "Feature", "properties": {"stop_id": "15517", "stop_name": "Middle Footscray Station", "routes": ["Sunbury"], "is_terminal": false, "mode": "train"}, "geometry": {"type": "Point", "coordinates": [144.89145843, -37.80258556]}}, {"type": "Feature", "properties": {"stop_id": "26538", "stop_name": "West Footscray Station", "routes": ["Sunbury"], "is_terminal": false, "mode": "train"}, "geometry": {"type": "Point", "coordinates": [144.88322526, -37.80175296]}}, {"type": "Feature", "properties": {"stop_id": "15513", "stop_name": "Tottenham Station", "routes": ["Sunbury"], "is_terminal": false, "mode": "train"}, "geometry": {"type": "Point", "coordinates": [144.86346501, -37.79933243]}}, {"type": "Feature", "properties": {"stop_id": "26531", "stop_name": "Sunshine Station", "routes": ["Sunbury"], "is_terminal": false, "mode": "train"}, "geometry": {"type": "Point", "coordinates": [144.8328035, -37.78837275]}}, {"type": "Feature", "properties": {"stop_id": "15365", "stop_name": "Albion Station", "routes": ["Sunbury"], "is_terminal": false, "mode": "train"}, "geometry": {"type": "Point", "coordinates": [144.8242426, -37.77711261]}}, {"type": "Feature", "properties": {"stop_id": "15363", "stop_name": "Ginifer Station", "routes": ["Sunbury"], "is_terminal": false, "mode": "train"}, "geometry": {"type": "Point", "coordinates": [144.81105139, -37.75973714]}}, {"type": "Feature", "properties": {"stop_id": "15360", "stop_name": "St Albans Station", "routes": ["Sunbury"], "is_terminal": false, "mode": "train"}, "geometry": {"type": "Point", "coordinates": [144.79978958, -37.74485644]}}, {"type": "Feature", "properties": {"stop_id": "15359", "stop_name": "Keilor Plains Station", "routes": ["Sunbury"], "is_terminal": false, "mode": "train"}, "geometry": {"type": "Point", "coordinates": [144.79377353, -37.72961344]}}, {"type": "Feature", "properties": {"stop_id": "15357", "stop_name": "Watergardens Station", "routes": ["Sunbury"], "is_terminal": false, "mode": "train"}, "geometry": {"type": "Point", "coordinates": [144.77393431, -37.70101593]}}, {"type": "Feature", "properties": {"stop_id": "15354", "stop_name": "Diggers Rest Station", "routes": ["Sunbury"], "is_terminal": false, "mode": "train"}, "geometry": {"type": "Point", "coordinates": [144.71984207, -37.62705101]}}, {"type": "Feature", "properties": {"stop_id": "26529", "stop_name": "Sunbury Station", "routes": ["Sunbury"], "is_terminal": true, "mode": "train"}, "geometry": {"type": "Point", "coordinates": [144.72797158, -37.5792207]}}, {"type": "Feature", "properties": {"stop_id": "12158", "stop_name": "Glen Waverley Station", "routes": ["Glen Waverley"], "is_terminal": true, "mode": "train"}, "geometry": {"type": "Point", "coordinates": [145.162893, -37.87974241]}}, {"type": "Feature", "properties": {"stop_id": "12160", "stop_name": "Syndal Station", "routes": ["Glen Waverley"], "is_terminal": false, "mode": "train"}, "geometry": {"type": "Point", "coordinates": [145.14963072, -37.87630838]}}, {"type": "Feature", "properties": {"stop_id": "12162", "stop_name": "Mount Waverley Station", "routes": ["Glen Waverley"], "is_terminal": false, "mode": "train"}, "geometry": {"type": "Point", "coordinates": [145.12754247, -37.87531919]}}, {"type": "Feature", "properties": {"stop_id": "10117", "stop_name": "Jordanville Station", "routes": ["Glen Waverley"], "is_terminal": false, "mode": "train"}, "geometry": {"type": "Point", "coordinates": [145.11197651, -37.87360157]}}, {"type": "Feature", "properties": {"stop_id": "8763", "stop_name": "Holmesglen Station", "routes": ["Glen Waverley"], "is_terminal": false, "mode": "train"}, "geometry": {"type": "Point", "coordinates": [145.09037513, -37.87450571]}}, {"type": "Feature", "properties": {"stop_id": "8705", "stop_name": "East Malvern Station", "routes": ["Glen Waverley"], "is_terminal": false, "mode": "train"}, "geometry": {"type": "Point", "coordinates": [145.06932411, -37.87695592]}}, {"type": "Feature", "properties": {"stop_id": "8272", "stop_name": "Darling Station", "routes": ["Glen Waverley"], "is_terminal": false, "mode": "train"}, "geometry": {"type": "Point", "coordinates": [145.06283885, -37.86889192]}}, {"type": "Feature", "properties": {"stop_id": "5966", "stop_name": "Glen Iris Station", "routes": ["Glen Waverley"], "is_terminal": false, "mode": "train"}, "geometry": {"type": "Point", "coordinates": [145.05813471, -37.85927989]}}, {"type": "Feature", "properties": {"stop_id": "12269", "stop_name": "Gardiner Station", "routes": ["Glen Waverley"], "is_terminal": false, "mode": "train"}, "geometry": {"type": "Point", "coordinates": [145.05128687, -37.85300263]}}, {"type": "Feature", "properties": {"stop_id": "12267", "stop_name": "Tooronga Station", "routes": ["Glen Waverley"], "is_terminal": false, "mode": "train"}, "geometry": {"type": "Point", "coordinates": [145.04169943, -37.84937398]}}, {"type": "Feature", "properties": {"stop_id": "12265", "stop_name": "Kooyong Station", "routes": ["Glen Waverley"], "is_terminal": false, "mode": "train"}, "geometry": {"type": "Point", "coordinates": [145.03293, -37.8398014]}}, {"type": "Feature", "properties": {"stop_id": "12263", "stop_name": "Heyington Station", "routes": ["Glen Waverley"], "is_terminal": false, "mode": "train"}, "geometry": {"type": "Point", "coordinates": [145.02267878, -37.83474527]}}, {"type": "Feature", "properties": {"stop_id": "12247", "stop_name": "Burnley Station", "routes": ["Glen Waverley"], "is_terminal": false, "mode": "train"}, "geometry": {"type": "Point", "coordinates": [145.00766508, -37.82769725]}}, {"type": "Feature", "properties": {"stop_id": "12251", "stop_name": "East Richmond Station", "routes": ["Glen Waverley"], "is_terminal": false, "mode": "train"}, "geometry": {"type": "Point", "coordinates": [144.99707413, -37.82650824]}}, {"type": "Feature", "properties": {"stop_id": "12259", "stop_name": "Richmond Station", "routes": ["Glen Waverley"], "is_terminal": false, "mode": "train"}, "geometry": {"type": "Point", "coordinates": [144.98967145, -37.82381371]}}, {"type": "Feature", "properties": {"stop_id": "12183", "stop_name": "Hallam Station", "routes": ["Pakenham"], "is_terminal": false, "mode": "train"}, "geometry": {"type": "Point", "coordinates": [145.27008129, -38.01787103]}}, {"type": "Feature", "properties": {"stop_id": "12181", "stop_name": "Narre Warren Station", "routes": ["Pakenham"], "is_terminal": false, "mode": "train"}, "geometry": {"type": "Point", "coordinates": [145.30382798, -38.02751889]}}, {"type": "Feature", "properties": {"stop_id": "12179", "stop_name": "Berwick Station", "routes": ["Pakenham"], "is_terminal": false, "mode": "train"}, "geometry": {"type": "Point", "coordinates": [145.34515871, -38.0397965]}}, {"type": "Feature", "properties": {"stop_id": "12177", "stop_name": "Beaconsfield Station", "routes": ["Pakenham"], "is_terminal": false, "mode": "train"}, "geometry": {"type": "Point", "coordinates": [145.36611771, -38.05090406]}}, {"type": "Feature", "properties": {"stop_id": "12175", "stop_name": "Officer Station", "routes": ["Pakenham"], "is_terminal": false, "mode": "train"}, "geometry": {"type": "Point", "coordinates": [145.411056, -38.06612862]}}, {"type": "Feature", "properties": {"stop_id": "26502", "stop_name": "Cardinia Road Station", "routes": ["Pakenham"], "is_terminal": false, "mode": "train"}, "geometry": {"type": "Point", "coordinates": [145.4381671, -38.07129547]}}, {"type": "Feature", "properties": {"stop_id": "12173", "stop_name": "Pakenham Station", "routes": ["Pakenham"], "is_terminal": false, "mode": "train"}, "geometry": {"type": "Point", "coordinates": [145.4857329, -38.08043442]}}, {"type": "Feature", "properties": {"stop_id": "26507", "stop_name": "East Pakenham Station", "routes": ["Pakenham"], "is_terminal": true, "mode": "train"}, "geometry": {"type": "Point", "coordinates": [145.50705389, -38.08433911]}}, {"type": "Feature", "properties": {"stop_id": "11215", "stop_name": "Flinders Street Station", "routes": ["Upfield"], "is_terminal": true, "mode": "train"}, "geometry": {"type": "Point", "coordinates": [144.96655582, -37.81828907]}}, {"type": "Feature", "properties": {"stop_id": "14325", "stop_name": "North Melbourne Station", "routes": ["Upfield"], "is_terminal": false, "mode": "train"}, "geometry": {"type": "Point", "coordinates": [144.94224405, -37.80728692]}}, {"type": "Feature", "properties": {"stop_id": "14323", "stop_name": "Macaulay Station", "routes": ["Upfield"], "is_terminal": false, "mode": "train"}, "geometry": {"type": "Point", "coordinates": [144.93603853, -37.79477816]}}, {"type": "Feature", "properties": {"stop_id": "14321", "stop_name": "Flemington Bridge Station", "routes": ["Upfield"], "is_terminal": false, "mode": "train"}, "geometry": {"type": "Point", "coordinates": [144.93920978, -37.78813796]}}, {"type": "Feature", "properties": {"stop_id": "14319", "stop_name": "Royal Park Station", "routes": ["Upfield"], "is_terminal": false, "mode": "train"}, "geometry": {"type": "Point", "coordinates": [144.95189395, -37.78114079]}}, {"type": "Feature", "properties": {"stop_id": "14317", "stop_name": "Jewell Station", "routes": ["Upfield"], "is_terminal": false, "mode": "train"}, "geometry": {"type": "Point", "coordinates": [144.95867251, -37.77495021]}}, {"type": "Feature", "properties": {"stop_id": "14315", "stop_name": "Brunswick Station", "routes": ["Upfield"], "is_terminal": false, "mode": "train"}, "geometry": {"type": "Point", "coordinates": [144.95955076, -37.76778301]}}, {"type": "Feature", "properties": {"stop_id": "14313", "stop_name": "Anstey Station", "routes": ["Upfield"], "is_terminal": false, "mode": "train"}, "geometry": {"type": "Point", "coordinates": [144.96067888, -37.76101664]}}, {"type": "Feature", "properties": {"stop_id": "14311", "stop_name": "Moreland Station", "routes": ["Upfield"], "is_terminal": false, "mode": "train"}, "geometry": {"type": "Point", "coordinates": [144.96179075, -37.75400666]}}, {"type": "Feature", "properties": {"stop_id": "14309", "stop_name": "Coburg Station", "routes": ["Upfield"], "is_terminal": false, "mode": "train"}, "geometry": {"type": "Point", "coordinates": [144.96327717, -37.74201957]}}, {"type": "Feature", "properties": {"stop_id": "14307", "stop_name": "Batman Station", "routes": ["Upfield"], "is_terminal": false, "mode": "train"}, "geometry": {"type": "Point", "coordinates": [144.96275402, -37.73336815]}}, {"type": "Feature", "properties": {"stop_id": "14305", "stop_name": "Merlynston Station", "routes": ["Upfield"], "is_terminal": false, "mode": "train"}, "geometry": {"type": "Point", "coordinates": [144.96129949, -37.72103278]}}, {"type": "Feature", "properties": {"stop_id": "14303", "stop_name": "Fawkner Station", "routes": ["Upfield"], "is_terminal": false, "mode": "train"}, "geometry": {"type": "Point", "coordinates": [144.96049844, -37.71466554]}}, {"type": "Feature", "properties": {"stop_id": "14301", "stop_name": "Gowrie Station", "routes": ["Upfield"], "is_terminal": false, "mode": "train"}, "geometry": {"type": "Point", "coordinates": [144.95877452, -37.70059516]}}, {"type": "Feature", "properties": {"stop_id": "14299", "stop_name": "Upfield Station", "routes": ["Upfield"], "is_terminal": true, "mode": "train"}, "geometry": {"type": "Point", "coordinates": [144.94675499, -37.66594287]}}, {"type": "Feature", "properties": {"stop_id": "88", "stop_name": "Stony Point Station", "routes": ["Stony Point"], "is_terminal": true, "mode": "train"}, "geometry": {"type": "Point", "coordinates": [145.22133817, -38.37405575]}}, {"type": "Feature", "properties": {"stop_id": "615", "stop_name": "Crib Point Station", "routes": ["Stony Point"], "is_terminal": false, "mode": "train"}, "geometry": {"type": "Point", "coordinates": [145.20400223, -38.36593352]}}, {"type": "Feature", "properties": {"stop_id": "2155", "stop_name": "Morradoo Station", "routes": ["Stony Point"], "is_terminal": false, "mode": "train"}, "geometry": {"type": "Point", "coordinates": [145.18942462, -38.35382333]}}, {"type": "Feature", "properties": {"stop_id": "3236", "stop_name": "Bittern Station", "routes": ["Stony Point"], "is_terminal": false, "mode": "train"}, "geometry": {"type": "Point", "coordinates": [145.17807927, -38.33711179]}}, {"type": "Feature", "properties": {"stop_id": "3580", "stop_name": "Hastings Station", "routes": ["Stony Point"], "is_terminal": false, "mode": "train"}, "geometry": {"type": "Point", "coordinates": [145.18595837, -38.30560413]}}, {"type": "Feature", "properties": {"stop_id": "4318", "stop_name": "Tyabb Station", "routes": ["Stony Point"], "is_terminal": false, "mode": "train"}, "geometry": {"type": "Point", "coordinates": [145.18623113, -38.25974029]}}, {"type": "Feature", "properties": {"stop_id": "5082", "stop_name": "Somerville Station", "routes": ["Stony Point"], "is_terminal": false, "mode": "train"}, "geometry": {"type": "Point", "coordinates": [145.17629976, -38.22543293]}}, {"type": "Feature", "properties": {"stop_id": "5701", "stop_name": "Baxter Station", "routes": ["Stony Point"], "is_terminal": false, "mode": "train"}, "geometry": {"type": "Point", "coordinates": [145.16055005, -38.19399838]}}, {"type": "Feature", "properties": {"stop_id": "7878", "stop_name": "Leawarra Station", "routes": ["Stony Point"], "is_terminal": false, "mode": "train"}, "geometry": {"type": "Point", "coordinates": [145.13957959, -38.15203472]}}, {"type": "Feature", "properties": {"stop_id": "26510", "stop_name": "Frankston Station", "routes": ["Stony Point"], "is_terminal": true, "mode": "train"}, "geometry": {"type": "Point", "coordinates": [145.12621712, -38.14263048]}}, {"type": "Feature", "properties": {"stop_id": "11120", "stop_name": "Belgrave Station", "routes": ["Belgrave"], "is_terminal": true, "mode": "train"}, "geometry": {"type": "Point", "coordinates": [145.35509837, -37.90908138]}}, {"type": "Feature", "properties": {"stop_id": "11121", "stop_name": "Tecoma Station", "routes": ["Belgrave"], "is_terminal": false, "mode": "train"}, "geometry": {"type": "Point", "coordinates": [145.3428039, -37.90799864]}}, {"type": "Feature", "properties": {"stop_id": "11122", "stop_name": "Upwey Station", "routes": ["Belgrave"], "is_terminal": false, "mode": "train"}, "geometry": {"type": "Point", "coordinates": [145.33121134, -37.90355406]}}, {"type": "Feature", "properties": {"stop_id": "11245", "stop_name": "Upper Ferntree Gully Station", "routes": ["Belgrave"], "is_terminal": false, "mode": "train"}, "geometry": {"type": "Point", "coordinates": [145.30707772, -37.89256606]}}, {"type": "Feature", "properties": {"stop_id": "11247", "stop_name": "Ferntree Gully Station", "routes": ["Belgrave"], "is_terminal": false, "mode": "train"}, "geometry": {"type": "Point", "coordinates": [145.29513821, -37.88166932]}}, {"type": "Feature", "properties": {"stop_id": "11249", "stop_name": "Boronia Station", "routes": ["Belgrave"], "is_terminal": false, "mode": "train"}, "geometry": {"type": "Point", "coordinates": [145.28466985, -37.86042891]}}, {"type": "Feature", "properties": {"stop_id": "11410", "stop_name": "Bayswater Station", "routes": ["Belgrave"], "is_terminal": false, "mode": "train"}, "geometry": {"type": "Point", "coordinates": [145.26773459, -37.84141772]}}, {"type": "Feature", "properties": {"stop_id": "11412", "stop_name": "Heathmont Station", "routes": ["Belgrave"], "is_terminal": false, "mode": "train"}, "geometry": {"type": "Point", "coordinates": [145.24455324, -37.82841236]}}]}